[{"OBJECT_NAME":"STARLINK-30378","OBJECT_ID":"2023-134S","EPOCH":"2026-03-09T22:00:01.999584","MEAN_MOTION":15.26726318,"ECCENTRICITY":0.00013972,"INCLINATION":43.0009,"RA_OF_ASC_NODE":193.3203,"ARG_OF_PERICENTER":269.7862,"MEAN_ANOMALY":323.1293,"EPHEMERIS_TYPE":0,"CLASSIFICATION_TYPE":"U","NORAD_CAT_ID":57787,"ELEMENT_SET_NO":999,"REV_AT_EPOCH":578,"BSTAR":0.00035472297,"MEAN_MOTION_DOT":9.263e-5,"MEAN_MOTION_DDOT":0},{"OBJECT_NAME":"PEGASUS R\/B","OBJECT_ID":"2007-015B","EPOCH":"2026-03-09T10:58:33.801024","MEAN_MOTION":15.26741121,"ECCENTRICITY":0.00105976,"INCLINATION":97.9168,"RA_OF_ASC_NODE":31.3919,"ARG_OF_PERICENTER":317.6341,"MEAN_ANOMALY":42.4077,"EPHEMERIS_TYPE":0,"CLASSIFICATION_TYPE":"U","NORAD_CAT_ID":31305,"ELEMENT_SET_NO":999,"REV_AT_EPOCH":3383,"BSTAR":0.00044093522,"MEAN_MOTION_DOT":0.00011537,"MEAN_MOTION_DDOT":0}]
